CCSDS_OMM_VERS = 2.0
CREATION_DATE  = 
ORIGINATOR     = 

OBJECT_NAME    = CZ-2D R/B
OBJECT_ID      = 2005-024B
CENTER_NAME    = EARTH
REF_FRAME      = TEME
TIME_SYSTEM    = UTC
MEAN_ELEMENT_THEORY = SGP/SGP4

EPOCH          = 2025-11-30T14:33:00.590976
MEAN_MOTION    = 15.52315583
ECCENTRICITY   = .00072716
INCLINATION    = 97.3638
RA_OF_ASC_NODE = 341.7443
ARG_OF_PERICENTER = 43.5917
MEAN_ANOMALY   = 316.5909

EPHEMERIS_TYPE = 0
CLASSIFICATION_TYPE = U
NORAD_CAT_ID   = 28738
ELEMENT_SET_NO = 999
REV_AT_EPOCH   = 12437
BSTAR          = .41748925E-3
MEAN_MOTION_DOT = .25372E-3
MEAN_MOTION_DDOT = 0

CCSDS_OMM_VERS = 2.0
CREATION_DATE  = 
ORIGINATOR     = 

OBJECT_NAME    = ALOS (DAICHI)
OBJECT_ID      = 2006-002A
CENTER_NAME    = EARTH
REF_FRAME      = TEME
TIME_SYSTEM    = UTC
MEAN_ELEMENT_THEORY = SGP/SGP4

EPOCH          = 2025-11-30T10:31:39.737568
MEAN_MOTION    = 14.69425828
ECCENTRICITY   = .00007259
INCLINATION    = 98.1074
RA_OF_ASC_NODE = 286.0145
ARG_OF_PERICENTER = 95.3054
MEAN_ANOMALY   = 264.8235

EPHEMERIS_TYPE = 0
CLASSIFICATION_TYPE = U
NORAD_CAT_ID   = 28931
ELEMENT_SET_NO = 999
REV_AT_EPOCH   = 5890
BSTAR          = .29011181E-3
MEAN_MOTION_DOT = .1668E-4
MEAN_MOTION_DDOT = 0

CCSDS_OMM_VERS = 2.0
CREATION_DATE  = 
ORIGINATOR     = 

OBJECT_NAME    = H-2A R/B
OBJECT_ID      = 2006-002B
CENTER_NAME    = EARTH
REF_FRAME      = TEME
TIME_SYSTEM    = UTC
MEAN_ELEMENT_THEORY = SGP/SGP4

EPOCH          = 2025-11-30T15:03:37.232928
MEAN_MOTION    = 15.14184549
ECCENTRICITY   = .00544465
INCLINATION    = 98.2305
RA_OF_ASC_NODE = 108.3905
ARG_OF_PERICENTER = 217.4980
MEAN_ANOMALY   = 142.2447

EPHEMERIS_TYPE = 0
CLASSIFICATION_TYPE = U
NORAD_CAT_ID   = 28932
ELEMENT_SET_NO = 999
REV_AT_EPOCH   = 7943
BSTAR          = .5949054E-3
MEAN_MOTION_DOT = .11192E-3
MEAN_MOTION_DDOT = 0

CCSDS_OMM_VERS = 2.0
CREATION_DATE  = 
ORIGINATOR     = 

OBJECT_NAME    = RESURS-DK 1
OBJECT_ID      = 2006-021A
CENTER_NAME    = EARTH
REF_FRAME      = TEME
TIME_SYSTEM    = UTC
MEAN_ELEMENT_THEORY = SGP/SGP4

EPOCH          = 2025-11-30T12:37:38.654976
MEAN_MOTION    = 15.12048549
ECCENTRICITY   = .00077523
INCLINATION    = 69.9321
RA_OF_ASC_NODE = 133.3975
ARG_OF_PERICENTER = 267.3306
MEAN_ANOMALY   = 92.6972

EPHEMERIS_TYPE = 0
CLASSIFICATION_TYPE = U
NORAD_CAT_ID   = 29228
ELEMENT_SET_NO = 999
REV_AT_EPOCH   = 7253
BSTAR          = .20640649E-3
MEAN_MOTION_DOT = .3453E-4
MEAN_MOTION_DDOT = 0

CCSDS_OMM_VERS = 2.0
CREATION_DATE  = 
ORIGINATOR     = 

OBJECT_NAME    = CZ-4B R/B
OBJECT_ID      = 2006-046C
CENTER_NAME    = EARTH
REF_FRAME      = TEME
TIME_SYSTEM    = UTC
MEAN_ELEMENT_THEORY = SGP/SGP4

EPOCH          = 2025-11-30T14:56:14.180640
MEAN_MOTION    = 15.15679313
ECCENTRICITY   = .00326434
INCLINATION    = 97.5758
RA_OF_ASC_NODE = 14.7941
ARG_OF_PERICENTER = 249.8355
MEAN_ANOMALY   = 109.9365

EPHEMERIS_TYPE = 0
CLASSIFICATION_TYPE = U
NORAD_CAT_ID   = 29507
ELEMENT_SET_NO = 999
REV_AT_EPOCH   = 4503
BSTAR          = .26680299E-3
MEAN_MOTION_DOT = .5076E-4
MEAN_MOTION_DDOT = 0

CCSDS_OMM_VERS = 2.0
CREATION_DATE  = 
ORIGINATOR     = 

OBJECT_NAME    = CZ-2C R/B
OBJECT_ID      = 2007-010B
CENTER_NAME    = EARTH
REF_FRAME      = TEME
TIME_SYSTEM    = UTC
MEAN_ELEMENT_THEORY = SGP/SGP4

EPOCH          = 2025-11-30T07:39:22.568544
MEAN_MOTION    = 14.20201359
ECCENTRICITY   = .00583277
INCLINATION    = 98.3970
RA_OF_ASC_NODE = 87.5952
ARG_OF_PERICENTER = 222.3219
MEAN_ANOMALY   = 137.3451

EPHEMERIS_TYPE = 0
CLASSIFICATION_TYPE = U
NORAD_CAT_ID   = 31114
ELEMENT_SET_NO = 999
REV_AT_EPOCH   = 96561
BSTAR          = .9694678E-4
MEAN_MOTION_DOT = .169E-5
MEAN_MOTION_DDOT = 0

CCSDS_OMM_VERS = 2.0
CREATION_DATE  = 
ORIGINATOR     = 

OBJECT_NAME    = COSMO-SKYMED 1
OBJECT_ID      = 2007-023A
CENTER_NAME    = EARTH
REF_FRAME      = TEME
TIME_SYSTEM    = UTC
MEAN_ELEMENT_THEORY = SGP/SGP4

EPOCH          = 2025-11-30T14:41:51.961344
MEAN_MOTION    = 14.95626438
ECCENTRICITY   = .00015737
INCLINATION    = 97.8849
RA_OF_ASC_NODE = 159.9329
ARG_OF_PERICENTER = 85.5593
MEAN_ANOMALY   = 274.5808

EPHEMERIS_TYPE = 0
CLASSIFICATION_TYPE = U
NORAD_CAT_ID   = 31598
ELEMENT_SET_NO = 999
REV_AT_EPOCH   = 9
BSTAR          = .41297565E-3
MEAN_MOTION_DOT = .453E-4
MEAN_MOTION_DDOT = 0

CCSDS_OMM_VERS = 2.0
CREATION_DATE  = 
ORIGINATOR     = 

OBJECT_NAME    = COSMOS 2428
OBJECT_ID      = 2007-029A
CENTER_NAME    = EARTH
REF_FRAME      = TEME
TIME_SYSTEM    = UTC
MEAN_ELEMENT_THEORY = SGP/SGP4

EPOCH          = 2025-11-30T13:28:00.984864
MEAN_MOTION    = 14.12886493
ECCENTRICITY   = .00029987
INCLINATION    = 70.9374
RA_OF_ASC_NODE = 51.4492
ARG_OF_PERICENTER = 42.8884
MEAN_ANOMALY   = 317.2471

EPHEMERIS_TYPE = 0
CLASSIFICATION_TYPE = U
NORAD_CAT_ID   = 31792
ELEMENT_SET_NO = 999
REV_AT_EPOCH   = 95009
BSTAR          = -.9282822E-5
MEAN_MOTION_DOT = -.65E-6
MEAN_MOTION_DDOT = 0

CCSDS_OMM_VERS = 2.0
CREATION_DATE  = 
ORIGINATOR     = 

OBJECT_NAME    = SL-16 R/B
OBJECT_ID      = 2007-029B
CENTER_NAME    = EARTH
REF_FRAME      = TEME
TIME_SYSTEM    = UTC
MEAN_ELEMENT_THEORY = SGP/SGP4

EPOCH          = 2025-11-30T12:27:30.619296
MEAN_MOTION    = 14.14816720
ECCENTRICITY   = .00024514
INCLINATION    = 70.9773
RA_OF_ASC_NODE = 20.8469
ARG_OF_PERICENTER = 266.1146
MEAN_ANOMALY   = 194.3041

EPHEMERIS_TYPE = 0
CLASSIFICATION_TYPE = U
NORAD_CAT_ID   = 31793
ELEMENT_SET_NO = 999
REV_AT_EPOCH   = 95134
BSTAR          = -.54157749E-4
MEAN_MOTION_DOT = -.152E-5
MEAN_MOTION_DDOT = 0

CCSDS_OMM_VERS = 2.0
CREATION_DATE  = 
ORIGINATOR     = 

OBJECT_NAME    = KORONAS-FOTON
OBJECT_ID      = 2009-003A
CENTER_NAME    = EARTH
REF_FRAME      = TEME
TIME_SYSTEM    = UTC
MEAN_ELEMENT_THEORY = SGP/SGP4

EPOCH          = 2025-11-30T14:40:28.107552
MEAN_MOTION    = 15.40787287
ECCENTRICITY   = .00124549
INCLINATION    = 82.4327
RA_OF_ASC_NODE = 18.6689
ARG_OF_PERICENTER = 147.7285
MEAN_ANOMALY   = 212.4726

EPHEMERIS_TYPE = 0
CLASSIFICATION_TYPE = U
NORAD_CAT_ID   = 33504
ELEMENT_SET_NO = 999
REV_AT_EPOCH   = 93047
BSTAR          = .32075763E-3
MEAN_MOTION_DOT = .13207E-3
MEAN_MOTION_DDOT = 0

CCSDS_OMM_VERS = 2.0
CREATION_DATE  = 
ORIGINATOR     = 

OBJECT_NAME    = CZ-2C R/B
OBJECT_ID      = 2011-030B
CENTER_NAME    = EARTH
REF_FRAME      = TEME
TIME_SYSTEM    = UTC
MEAN_ELEMENT_THEORY = SGP/SGP4

EPOCH          = 2025-11-30T15:43:15.527712
MEAN_MOTION    = 14.80833642
ECCENTRICITY   = .00519096
INCLINATION    = 97.8391
RA_OF_ASC_NODE = 289.0311
ARG_OF_PERICENTER = 314.0004
MEAN_ANOMALY   = 219.2808

EPHEMERIS_TYPE = 0
CLASSIFICATION_TYPE = U
NORAD_CAT_ID   = 37731
ELEMENT_SET_NO = 999
REV_AT_EPOCH   = 77543
BSTAR          = .25139156E-3
MEAN_MOTION_DOT = .193E-4
MEAN_MOTION_DDOT = 0

CCSDS_OMM_VERS = 2.0
CREATION_DATE  = 
ORIGINATOR     = 

OBJECT_NAME    = H-2A R/B
OBJECT_ID      = 2012-025E
CENTER_NAME    = EARTH
REF_FRAME      = TEME
TIME_SYSTEM    = UTC
MEAN_ELEMENT_THEORY = SGP/SGP4

EPOCH          = 2025-11-30T14:05:41.195904
MEAN_MOTION    = 14.94318784
ECCENTRICITY   = .00438274
INCLINATION    = 98.4576
RA_OF_ASC_NODE = 288.8831
ARG_OF_PERICENTER = 277.5105
MEAN_ANOMALY   = 82.1135

EPHEMERIS_TYPE = 0
CLASSIFICATION_TYPE = U
NORAD_CAT_ID   = 38341
ELEMENT_SET_NO = 999
REV_AT_EPOCH   = 73341
BSTAR          = .2934578E-3
MEAN_MOTION_DOT = .3144E-4
MEAN_MOTION_DDOT = 0

