CZ-2D R/B               
1 28738U 05024B   25334.60625684  .00025372  00000+0  41749-3 0  9999
2 28738  97.3638 341.7443 0007271  43.5917 316.5909 15.52315583124376
ALOS (DAICHI)           
1 28931U 06002A   25334.43865437  .00001668  00000+0  29011-3 0  9994
2 28931  98.1074 286.0145 0000725  95.3054 264.8235 14.69425828 58901
H-2A R/B                
1 28932U 06002B   25334.62751427  .00011192  00000+0  59491-3 0  9997
2 28932  98.2305 108.3905 0054446 217.4980 142.2447 15.14184549 79432
RESURS-DK 1             
1 29228U 06021A   25334.52614184  .00003453  00000+0  20641-3 0  9990
2 29228  69.9321 133.3975 0007752 267.3306  92.6972 15.12048549 72535
CZ-4B R/B               
1 29507U 06046C   25334.62238635  .00005076  00000+0  26680-3 0  9993
2 29507  97.5758  14.7941 0032643 249.8355 109.9365 15.15679313 45032
CZ-2C R/B               
1 31114U 07010B   25334.31901121  .00000169  00000+0  96947-4 0  9997
2 31114  98.3970  87.5952 0058327 222.3219 137.3451 14.20201359965618
COSMO-SKYMED 1          
1 31598U 07023A   25334.61240696  .00004530  00000+0  41298-3 0  9997
2 31598  97.8849 159.9329 0001573  85.5593 274.5808 14.95626438    93
COSMOS 2428             
1 31792U 07029A   25334.56112251 -.00000065  00000+0 -92828-5 0  9996
2 31792  70.9374  51.4492 0002998  42.8884 317.2471 14.12886493950095
SL-16 R/B               
1 31793U 07029B   25334.51910439 -.00000152  00000+0 -54158-4 0  9996
2 31793  70.9773  20.8469 0002451 266.1146 194.3041 14.14816720951343
KORONAS-FOTON           
1 33504U 09003A   25334.61143643  .00013207  00000+0  32076-3 0  9995
2 33504  82.4327  18.6689 0012454 147.7285 212.4726 15.40787287930477
CZ-2C R/B               
1 37731U 11030B   25334.65504083  .00001930  00000+0  25139-3 0  9999
2 37731  97.8391 289.0311 0051909 314.0004 219.2808 14.80833642775435
H-2A R/B                
1 38341U 12025E   25334.58728236  .00003144  00000+0  29346-3 0  9995
2 38341  98.4576 288.8831 0043827 277.5105  82.1135 14.94318784733416
